{
    "links": {
        "self": "http://www.neowsapp.com/rest/v1/neo/3757412?api_key=iIulBulltgU6a56xZRHN4H3l9WmuAYTsLGpBGhQ2"
    },
    "id": "3757412",
    "neo_reference_id": "3757412",
    "name": "(2016 PC40)",
    "designation": "2016 PC40",
    "nasa_jpl_url": "http://ssd.jpl.nasa.gov/sbdb.cgi?sstr=3757412",
    "absolute_magnitude_h": 23.8,
    "estimated_diameter": {
        "kilometers": {
            "estimated_diameter_min": 0.046190746,
            "estimated_diameter_max": 0.1032856481
        },
        "meters": {
            "estimated_diameter_min": 46.1907460282,
            "estimated_diameter_max": 103.2856480504
        },
        "miles": {
            "estimated_diameter_min": 0.0287015901,
            "estimated_diameter_max": 0.0641787064
        },
        "feet": {
            "estimated_diameter_min": 151.544447199,
            "estimated_diameter_max": 338.8636855496
        }
    },
    "is_potentially_hazardous_asteroid": false,
    "close_approach_data": [
        {
            "close_approach_date": "2006-08-15",
            "close_approach_date_full": "2006-Aug-15 05:28",
            "epoch_date_close_approach": 1155619680000,
            "relative_velocity": {
                "kilometers_per_second": "6.1876162806",
                "kilometers_per_hour": "22275.4186099943",
                "miles_per_hour": "13841.0788579712"
            },
            "miss_distance": {
                "astronomical": "0.395035013",
                "lunar": "153.668620057",
                "kilometers": "59096396.52022231",
                "miles": "36720798.031635478"
            },
            "orbiting_body": "Earth"
        },
        {
            "close_approach_date": "2016-08-09",
            "close_approach_date_full": "2016-Aug-09 19:03",
            "epoch_date_close_approach": 1470769380000,
            "relative_velocity": {
                "kilometers_per_second": "3.5935147504",
                "kilometers_per_hour": "12936.6531014129",
                "miles_per_hour": "8038.3331451529"
            },
            "miss_distance": {
                "astronomical": "0.1887679408",
                "lunar": "73.4307289712",
                "kilometers": "28239281.867966096",
                "miles": "17547076.0840242848"
            },
            "orbiting_body": "Earth"
        },
        {
            "close_approach_date": "2026-08-10",
            "close_approach_date_full": "2026-Aug-10 16:11",
            "epoch_date_close_approach": 1786378260000,
            "relative_velocity": {
                "kilometers_per_second": "5.4083984941",
                "kilometers_per_hour": "19470.2345787388",
                "miles_per_hour": "12098.0465914391"
            },
            "miss_distance": {
                "astronomical": "0.2881319242",
                "lunar": "112.0833185138",
                "kilometers": "43103922.139321454",
                "miles": "26783535.2483419052"
            },
            "orbiting_body": "Earth"
        },
        {
            "close_approach_date": "2083-08-12",
            "close_approach_date_full": "2083-Aug-12 21:52",
            "epoch_date_close_approach": 3585333120000,
            "relative_velocity": {
                "kilometers_per_second": "5.8627726301",
                "kilometers_per_hour": "21105.9814683846",
                "miles_per_hour": "13114.436096286"
            },
            "miss_distance": {
                "astronomical": "0.3336399186",
                "lunar": "129.7859283354",
                "kilometers": "49911821.169533382",
                "miles": "31013767.5472373916"
            },
            "orbiting_body": "Earth"
        }
    ],
    "orbital_data": {
        "orbit_id": "6",
        "orbit_determination_date": "2017-04-06 08:24:31",
        "first_observation_date": "2016-08-11",
        "last_observation_date": "2016-09-21",
        "data_arc_in_days": 41,
        "observations_used": 24,
        "orbit_uncertainty": "6",
        "minimum_orbit_intersection": ".187345",
        "jupiter_tisserand_invariant": "3.486",
        "epoch_osculation": "2459000.5",
        "eccentricity": ".4652514703907374",
        "semi_major_axis": "2.237127821221358",
        "inclination": "2.036129981552254",
        "ascending_node_longitude": "43.47492685303444",
        "orbital_period": "1222.178459220849",
        "perihelion_distance": "1.196300812946094",
        "perihelion_argument": "275.4283730807183",
        "aphelion_distance": "3.277954829496621",
        "perihelion_time": "2458832.475921291764",
        "mean_anomaly": "49.4925007707362",
        "mean_motion": ".294556001444751",
        "equinox": "J2000",
        "orbit_class": {
            "orbit_class_type": "AMO",
            "orbit_class_description": "Near-Earth asteroid orbits similar to that of 1221 Amor",
            "orbit_class_range": "1.017 AU < q (perihelion) < 1.3 AU"
        }
    },
    "is_sentry_object": false
}